[{"OBJECT_NAME":"FLOCK 4G-17","OBJECT_ID":"2025-009CA","EPOCH":"2026-03-09T22:51:51.984864","MEAN_MOTION":15.27385439,"ECCENTRICITY":0.00036407,"INCLINATION":97.3966,"RA_OF_ASC_NODE":151.0229,"ARG_OF_PERICENTER":339.6132,"MEAN_ANOMALY":20.4962,"EPHEMERIS_TYPE":0,"CLASSIFICATION_TYPE":"U","NORAD_CAT_ID":62681,"ELEMENT_SET_NO":999,"REV_AT_EPOCH":12139,"BSTAR":0.00053710713,"MEAN_MOTION_DOT":0.00014342,"MEAN_MOTION_DDOT":0},{"OBJECT_NAME":"STARLINK-36508","OBJECT_ID":"2026-005G","EPOCH":"2026-03-09T18:21:01.929024","MEAN_MOTION":15.27606918,"ECCENTRICITY":0.00029463,"INCLINATION":43.0018,"RA_OF_ASC_NODE":237.9375,"ARG_OF_PERICENTER":282.2963,"MEAN_ANOMALY":77.7559,"EPHEMERIS_TYPE":0,"CLASSIFICATION_TYPE":"U","NORAD_CAT_ID":67410,"ELEMENT_SET_NO":999,"REV_AT_EPOCH":870,"BSTAR":0.0012482144,"MEAN_MOTION_DOT":0.00034276,"MEAN_MOTION_DDOT":0}]
